SALSAT                  
1 46495U 20068K   26073.51831201  .00012617  00000+0  46004-3 0  9996
2 46495  97.8858  70.9296 0008068 275.9056  84.1263 15.28293668300898
XW-3 (CAS-9)            
1 50466U 21131B   26073.64139863  .00000723  00000+0  23727-3 0  9992
2 50466  98.4952 166.5679 0004681  36.7452 323.4057 14.41258508221496
GREENCUBE (IO-117)      
1 53109U 22080E   26072.15662715 -.00000003  00000+0  00000+0 0  9992
2 53109  70.1608 331.6501 0009033 310.6857  49.3018  6.42583056 85890
UMKA 1 (RS40S)          
1 57172U 23091G   26073.57652914  .00009694  00000+0  45604-3 0  9993
2 57172  97.5174 132.6630 0014641  90.9102 269.3810 15.19678773149631
CUBESX-HSE 3 (RS42S)    
1 57178U 23091N   26073.60401910  .00019397  00000+0  69376-3 0  9994
2 57178  97.5203 138.1244 0012471  71.8157 288.4440 15.28769253149960
MONITOR-3 (RS58S)       
1 57180U 23091Q   26073.63127307  .00016045  00000+0  62689-3 0  9992
2 57180  97.5199 136.4738 0013530  76.5300 283.7445 15.25876087149868
MONITOR-4 (RS57S)       
1 57182U 23091S   26073.61611953  .00016657  00000+0  64894-3 0  9996
2 57182  97.5192 136.4237 0013506  76.9968 283.2777 15.25963268149865
MONITOR-2 (RS39S)       
1 57184U 23091U   26073.61718453  .00007444  00000+0  36879-3 0  9997
2 57184  97.5199 132.5213 0013014  83.8204 276.4512 15.17982351149607
SVYATOBOR 1 (RS60S)     
1 57187U 23091X   26073.62172843  .00013462  00000+0  54216-3 0  9990
2 57187  97.5204 136.9856 0011024  70.2628 289.9797 15.24929815149896
VIZARD-METEO (RS38S)    
1 57189U 23091Z   26073.65926225  .00023796  00000+0  74775-3 0  9999
2 57189  97.5193 141.4297 0008442  57.6256 302.5802 15.32956915150195
NANOZOND 1 (RS49S)      
1 57190U 23091AA  26068.04609972  .00257461  00000+0  17344-2 0  9991
2 57190  97.5065 148.2398 0000999 320.8834  39.2358 15.74384803150173
POLYTECH-UNIVERSE 3 (R*)
1 57191U 23091AB  26073.59068238  .00007788  00000+0  38297-3 0  9998
2 57191  97.5172 132.0015 0017387  98.7383 261.5821 15.18166702149592
UTMN 2 (RS27S)          
1 57203U 23091AP  26073.60947946  .00019335  00000+0  67388-3 0  9990
2 57203  97.5194 139.6469 0009438  61.6538 298.5652 15.29647821150070
KUZGTU 1 (RS47S)        
1 57217U 23091AV  26073.64898598  .00018288  00000+0  67741-3 0  9996
2 57217  97.5178 137.2772 0012714  74.5147 285.7495 15.27627730149939
SONATE-2                
1 59112U 24043Q   26073.36743000  .00044827  00000+0  74944-3 0  9997
2 59112  97.5392 218.5234 0007954 187.4749 172.6386 15.51750307113153
MESAT1                  
1 60209U 24125G   26073.53015885  .00061467  00000+0  94081-3 0  9992
2 60209  97.2453 289.4282 0011537 202.1444 157.9313 15.54091883 94824
