[{"OBJECT_NAME":"SALSAT","OBJECT_ID":"2020-068K","EPOCH":"2026-03-14T12:26:22.157664","MEAN_MOTION":15.28293668,"ECCENTRICITY":0.00080685,"INCLINATION":97.8858,"RA_OF_ASC_NODE":70.9296,"ARG_OF_PERICENTER":275.9056,"MEAN_ANOMALY":84.1263,"EPHEMERIS_TYPE":0,"CLASSIFICATION_TYPE":"U","NORAD_CAT_ID":46495,"ELEMENT_SET_NO":999,"REV_AT_EPOCH":30089,"BSTAR":0.00046003648,"MEAN_MOTION_DOT":0.00012617,"MEAN_MOTION_DDOT":0},{"OBJECT_NAME":"XW-3 (CAS-9)","OBJECT_ID":"2021-131B","EPOCH":"2026-03-14T15:23:36.841632","MEAN_MOTION":14.41258508,"ECCENTRICITY":0.00046813,"INCLINATION":98.4952,"RA_OF_ASC_NODE":166.5679,"ARG_OF_PERICENTER":36.7452,"MEAN_ANOMALY":323.4057,"EPHEMERIS_TYPE":0,"CLASSIFICATION_TYPE":"U","NORAD_CAT_ID":50466,"ELEMENT_SET_NO":999,"REV_AT_EPOCH":22149,"BSTAR":0.00023726702,"MEAN_MOTION_DOT":7.23e-6,"MEAN_MOTION_DDOT":0},{"OBJECT_NAME":"GREENCUBE (IO-117)","OBJECT_ID":"2022-080E","EPOCH":"2026-03-13T03:45:32.585760","MEAN_MOTION":6.42583056,"ECCENTRICITY":0.00090336,"INCLINATION":70.1608,"RA_OF_ASC_NODE":331.6501,"ARG_OF_PERICENTER":310.6857,"MEAN_ANOMALY":49.3018,"EPHEMERIS_TYPE":0,"CLASSIFICATION_TYPE":"U","NORAD_CAT_ID":53109,"ELEMENT_SET_NO":999,"REV_AT_EPOCH":8589,"BSTAR":0,"MEAN_MOTION_DOT":-3.0e-8,"MEAN_MOTION_DDOT":0},{"OBJECT_NAME":"UMKA 1 (RS40S)","OBJECT_ID":"2023-091G","EPOCH":"2026-03-14T13:50:12.117696","MEAN_MOTION":15.19678773,"ECCENTRICITY":0.00146418,"INCLINATION":97.5174,"RA_OF_ASC_NODE":132.663,"ARG_OF_PERICENTER":90.9102,"MEAN_ANOMALY":269.381,"EPHEMERIS_TYPE":0,"CLASSIFICATION_TYPE":"U","NORAD_CAT_ID":57172,"ELEMENT_SET_NO":999,"REV_AT_EPOCH":14963,"BSTAR":0.00045603605,"MEAN_MOTION_DOT":9.694e-5,"MEAN_MOTION_DDOT":0},{"OBJECT_NAME":"CUBESX-HSE 3 (RS42S)","OBJECT_ID":"2023-091N","EPOCH":"2026-03-14T14:29:47.250240","MEAN_MOTION":15.28769253,"ECCENTRICITY":0.00124717,"INCLINATION":97.5203,"RA_OF_ASC_NODE":138.1244,"ARG_OF_PERICENTER":71.8157,"MEAN_ANOMALY":288.444,"EPHEMERIS_TYPE":0,"CLASSIFICATION_TYPE":"U","NORAD_CAT_ID":57178,"ELEMENT_SET_NO":999,"REV_AT_EPOCH":14996,"BSTAR":0.0006937565,"MEAN_MOTION_DOT":0.00019397,"MEAN_MOTION_DDOT":0},{"OBJECT_NAME":"MONITOR-3 (RS58S)","OBJECT_ID":"2023-091Q","EPOCH":"2026-03-14T15:09:01.993248","MEAN_MOTION":15.25876087,"ECCENTRICITY":0.00135302,"INCLINATION":97.5199,"RA_OF_ASC_NODE":136.4738,"ARG_OF_PERICENTER":76.53,"MEAN_ANOMALY":283.7445,"EPHEMERIS_TYPE":0,"CLASSIFICATION_TYPE":"U","NORAD_CAT_ID":57180,"ELEMENT_SET_NO":999,"REV_AT_EPOCH":14986,"BSTAR":0.00062688626,"MEAN_MOTION_DOT":0.00016045,"MEAN_MOTION_DDOT":0},{"OBJECT_NAME":"MONITOR-4 (RS57S)","OBJECT_ID":"2023-091S","EPOCH":"2026-03-14T14:47:12.727392","MEAN_MOTION":15.25963268,"ECCENTRICITY":0.00135061,"INCLINATION":97.5192,"RA_OF_ASC_NODE":136.4237,"ARG_OF_PERICENTER":76.9968,"MEAN_ANOMALY":283.2777,"EPHEMERIS_TYPE":0,"CLASSIFICATION_TYPE":"U","NORAD_CAT_ID":57182,"ELEMENT_SET_NO":999,"REV_AT_EPOCH":14986,"BSTAR":0.00064893997,"MEAN_MOTION_DOT":0.00016657,"MEAN_MOTION_DDOT":0},{"OBJECT_NAME":"MONITOR-2 (RS39S)","OBJECT_ID":"2023-091U","EPOCH":"2026-03-14T14:48:44.743392","MEAN_MOTION":15.17982351,"ECCENTRICITY":0.00130147,"INCLINATION":97.5199,"RA_OF_ASC_NODE":132.5213,"ARG_OF_PERICENTER":83.8204,"MEAN_ANOMALY":276.4512,"EPHEMERIS_TYPE":0,"CLASSIFICATION_TYPE":"U","NORAD_CAT_ID":57184,"ELEMENT_SET_NO":999,"REV_AT_EPOCH":14960,"BSTAR":0.00036879059,"MEAN_MOTION_DOT":7.444e-5,"MEAN_MOTION_DDOT":0},{"OBJECT_NAME":"SVYATOBOR 1 (RS60S)","OBJECT_ID":"2023-091X","EPOCH":"2026-03-14T14:55:17.336352","MEAN_MOTION":15.24929815,"ECCENTRICITY":0.00110249,"INCLINATION":97.5204,"RA_OF_ASC_NODE":136.9856,"ARG_OF_PERICENTER":70.2628,"MEAN_ANOMALY":289.9797,"EPHEMERIS_TYPE":0,"CLASSIFICATION_TYPE":"U","NORAD_CAT_ID":57187,"ELEMENT_SET_NO":999,"REV_AT_EPOCH":14989,"BSTAR":0.0005421633,"MEAN_MOTION_DOT":0.00013462,"MEAN_MOTION_DDOT":0},{"OBJECT_NAME":"VIZARD-METEO (RS38S)","OBJECT_ID":"2023-091Z","EPOCH":"2026-03-14T15:49:20.258400","MEAN_MOTION":15.32956915,"ECCENTRICITY":0.0008442,"INCLINATION":97.5193,"RA_OF_ASC_NODE":141.4297,"ARG_OF_PERICENTER":57.6256,"MEAN_ANOMALY":302.5802,"EPHEMERIS_TYPE":0,"CLASSIFICATION_TYPE":"U","NORAD_CAT_ID":57189,"ELEMENT_SET_NO":999,"REV_AT_EPOCH":15019,"BSTAR":0.00074774656,"MEAN_MOTION_DOT":0.00023796,"MEAN_MOTION_DDOT":0},{"OBJECT_NAME":"NANOZOND 1 (RS49S)","OBJECT_ID":"2023-091AA","EPOCH":"2026-03-09T01:06:23.015808","MEAN_MOTION":15.74384803,"ECCENTRICITY":9.992e-5,"INCLINATION":97.5065,"RA_OF_ASC_NODE":148.2398,"ARG_OF_PERICENTER":320.8834,"MEAN_ANOMALY":39.2358,"EPHEMERIS_TYPE":0,"CLASSIFICATION_TYPE":"U","NORAD_CAT_ID":57190,"ELEMENT_SET_NO":999,"REV_AT_EPOCH":15017,"BSTAR":0.0017343613,"MEAN_MOTION_DOT":0.00257461,"MEAN_MOTION_DDOT":0},{"OBJECT_NAME":"POLYTECH-UNIVERSE 3 (RS46S)","OBJECT_ID":"2023-091AB","EPOCH":"2026-03-14T14:10:34.957632","MEAN_MOTION":15.18166702,"ECCENTRICITY":0.00173872,"INCLINATION":97.5172,"RA_OF_ASC_NODE":132.0015,"ARG_OF_PERICENTER":98.7383,"MEAN_ANOMALY":261.5821,"EPHEMERIS_TYPE":0,"CLASSIFICATION_TYPE":"U","NORAD_CAT_ID":57191,"ELEMENT_SET_NO":999,"REV_AT_EPOCH":14959,"BSTAR":0.00038296678,"MEAN_MOTION_DOT":7.788e-5,"MEAN_MOTION_DDOT":0},{"OBJECT_NAME":"UTMN 2 (RS27S)","OBJECT_ID":"2023-091AP","EPOCH":"2026-03-14T14:37:39.025344","MEAN_MOTION":15.29647821,"ECCENTRICITY":0.00094383,"INCLINATION":97.5194,"RA_OF_ASC_NODE":139.6469,"ARG_OF_PERICENTER":61.6538,"MEAN_ANOMALY":298.5652,"EPHEMERIS_TYPE":0,"CLASSIFICATION_TYPE":"U","NORAD_CAT_ID":57203,"ELEMENT_SET_NO":999,"REV_AT_EPOCH":15007,"BSTAR":0.0006738818,"MEAN_MOTION_DOT":0.00019335,"MEAN_MOTION_DDOT":0},{"OBJECT_NAME":"KUZGTU 1 (RS47S)","OBJECT_ID":"2023-091AV","EPOCH":"2026-03-14T15:34:32.388672","MEAN_MOTION":15.2762773,"ECCENTRICITY":0.00127147,"INCLINATION":97.5178,"RA_OF_ASC_NODE":137.2772,"ARG_OF_PERICENTER":74.5147,"MEAN_ANOMALY":285.7495,"EPHEMERIS_TYPE":0,"CLASSIFICATION_TYPE":"U","NORAD_CAT_ID":57217,"ELEMENT_SET_NO":999,"REV_AT_EPOCH":14993,"BSTAR":0.0006774078,"MEAN_MOTION_DOT":0.00018288,"MEAN_MOTION_DDOT":0},{"OBJECT_NAME":"SONATE-2","OBJECT_ID":"2024-043Q","EPOCH":"2026-03-14T08:49:05.952000","MEAN_MOTION":15.51750307,"ECCENTRICITY":0.00079544,"INCLINATION":97.5392,"RA_OF_ASC_NODE":218.5234,"ARG_OF_PERICENTER":187.4749,"MEAN_ANOMALY":172.6386,"EPHEMERIS_TYPE":0,"CLASSIFICATION_TYPE":"U","NORAD_CAT_ID":59112,"ELEMENT_SET_NO":999,"REV_AT_EPOCH":11315,"BSTAR":0.00074944397,"MEAN_MOTION_DOT":0.00044827,"MEAN_MOTION_DDOT":0},{"OBJECT_NAME":"MESAT1","OBJECT_ID":"2024-125G","EPOCH":"2026-03-14T12:43:25.724640","MEAN_MOTION":15.54091883,"ECCENTRICITY":0.00115375,"INCLINATION":97.2453,"RA_OF_ASC_NODE":289.4282,"ARG_OF_PERICENTER":202.1444,"MEAN_ANOMALY":157.9313,"EPHEMERIS_TYPE":0,"CLASSIFICATION_TYPE":"U","NORAD_CAT_ID":60209,"ELEMENT_SET_NO":999,"REV_AT_EPOCH":9482,"BSTAR":0.00094081417,"MEAN_MOTION_DOT":0.00061467,"MEAN_MOTION_DDOT":0}]
